#dP2018  5 22  0  0  0.00000000      96 __u+U IGS08 FIT  IAC
## 2002 172800.00000000   900.00000000 58260 0.0000000000000
+   85   C01C02C03C04C05C06C07C08C09C10C11C12C13C14E01E02E03
+        E04E05E07E08E09E11E12E14E18E19E24E26E30G01G02G03G05
+        G06G07G08G09G10G11G12G13G14G15G16G17G18G19G20G21G22
+        G23G24G25G26G27G28G29G30G31G32J03R01R02R03R04R05R07
+        R08R09R10R11R13R14R15R16R17R18R19R20R21R22R23R24R26
++        13 12 12 14 12  8  8  8  8  8  7  7  8  8  7  7  7
++         7  7  7  7  7  7  7  8  7  7  7  7  7  3  3  3  3
++         3  3  3  3  3  3  3  3  3  3  3  3  3  3  3  3  3
++         3  3  3  3  3  3  3  3  3  3 11  5  5  5  5  8  5
++         5  5  5  5  5  5  5  5  5  5  6  5  5  5  5  5  8
%c M  cc GPS ccc cccc cccc cccc cccc ccccc ccccc ccccc ccccc
%c cc cc ccc ccc cccc cccc cccc cccc ccccc ccccc ccccc ccccc
%f  1.2500000  1.025000000  0.00000000000  0.000000000000000
%f  0.0000000  0.000000000  0.00000000000  0.000000000000000
%i    0    0    0    0      0      0      0      0         0
%i    0    0    0    0      0      0      0      0         0
/* INFORMATION & ANALYSIS CENTER (IAC)            FINAL DATA
/* S/V CLOCKS ARE ALIGNED TO GPS & GLONASS TIME RESPECTIVELY
/* USING THE BROADCAST EPHEMERIS                            
/* PCV:IGS14_2000 OL/AL:FES2004  NONE     YN ORB:CoN CLK:CoN
*  2018 05 22  1 45  0.00000000
PC01 -32261.869200  27142.559043    785.216934   -267.787282
PC02   4375.702511  41913.606255  -1318.372548    419.006703
PC03 -14830.435317  39425.733864     16.908366   -304.698846
PC04 -39631.730327  14410.103537    175.101599 999999.999999
PC05  21922.285235  35988.252795  -1003.907812    411.729999
PC06 -15744.780512  38030.768445  -8036.997208     26.709791
PC07  -9609.140697  24907.439189  32808.408348    140.292728
PC08 -25412.437364  23227.868337 -24427.139360    351.087905
PC09  -6626.193224  40793.145275   7596.122720   -108.147542
PC10   6311.601829  32315.170598  26641.738542   -249.886123
PC11  22900.426854 -11092.828768 -11324.849494   -517.586130
PC12  14955.365148   6483.429745 -22583.930783    450.841987
PC13 -10568.996429  25671.488974 -31785.015562   -341.843338
PC14  15997.811796  -2228.774215  22817.667017    343.648129
PE01 -12079.986783  11042.929573  24657.086362   -350.206177
PE02  12062.901740 -11064.612539 -24668.214371     14.165267
PE03  12829.499682 -22738.631262  13947.573975    -34.749655
PE04   -761.014458  29315.234293   4024.809474    -39.101513
PE05  17405.807193  -2819.912143  23784.443559    260.873406
PE07 -11779.058015 -18702.591164 -19671.170328     28.920148
PE08    532.793997 -29318.064882  -3995.760269   6579.961975
PE09  11834.688501  18622.420214  19750.777415   6785.340957
PE11  17588.196453   8604.094410 -22209.811404    186.295702
PE12  -3456.877417  18341.271430 -22963.256832   4209.427857
PE14  21559.128352 -19294.088217  -8103.985095   6579.266554
PE18 -11105.709372  24221.305530  -6271.539864   6190.867859
PE19 -13474.249970  21371.056967 -15408.229573     22.492238
PE24  22591.676664  18970.914469   2337.365331   6694.283594
PE26 -27739.800232   5543.954641   8711.331651   5910.920691
PE30  -7452.236179 -21336.829683 -19130.209547   5821.462313
PG01  13292.504143  13325.447200 -19007.319032    -49.724114
PG02  10981.031201 -14549.383174  19798.537459    108.525197
PG03  13157.657928  23104.683919    563.294159     74.889435
PG05   2002.882038 -20424.957475  16643.775838     -7.513654
PG06  23376.277302  -6880.435139  10633.145849    401.830412
PG07  25061.085259   6165.942337   7433.832801    187.998159
PG08  -2038.569414  22388.667356 -13972.969482   -102.074471
PG09  14512.655648   5501.678557  21524.176199    514.090511
PG10 -16335.982556    689.392736 -20916.443845    185.799148
PG11   8420.158088  14469.523224 -21170.364304   -735.803060
PG12  -9634.167849 -24730.220431  -2764.653769    332.269849
PG13  11201.772941 -22877.875808  -7632.919268    -94.257592
PG14 -17924.968033  18631.810987  -5355.630769    -97.015376
PG15  -1371.859805 -22020.810276 -14720.697102   -353.877919
PG16  -3745.096659  19511.311288  17252.622787     24.047878
PG17  19047.972284 -11817.888851 -13761.481071    -95.792032
PG18   3829.994696  15465.188601 -21726.350737     12.009544
PG19  19158.312601 -16941.953500  -7799.975613   -434.534409
PG20 -19924.614159 -13645.099010 -11302.628604    508.727169
PG21 -26006.108107  -3016.908643   5206.264280   -391.956108
PG22   8382.205819  23976.241641  -7545.880608   -399.776543
PG23   6159.202314  17260.025829  19365.746057   -216.816275
PG24  -9732.614767 -14488.878416 -20210.149744    -50.049327
PG25 -17264.333142 -17721.767089   9790.778529   -588.795478
PG26 -10843.070402  11420.696452  21360.396037   -141.395923
PG27 -11850.322928  23452.579580  -2803.613324    368.498410
PG28  16233.640236   3879.638983 -20030.359441    717.211738
PG29 -11820.676774  -8736.167435  22100.600798    445.961967
PG30  26536.614217    114.159337  -2458.103670     71.479287
PG31 -22776.840443   7242.985940  12055.260801    120.005061
PG32 -18845.181663  11539.093851 -14636.076536   -506.187940
PJ03 -31507.275016  26382.339107  14412.617487    -14.780696
PR01  11074.844552  -1006.375643  22964.492148     26.563362
PR02   5793.702538 -20288.078031  14414.644694    310.921733
PR03  -2527.527695 -25280.603878  -2460.355170    132.840807
PR04  -9521.841636 -15103.380054 -18202.518101    261.820232
PR05 -10879.608274   3173.018353 -22855.047724    -12.140621
PR07   2775.336750  25161.379392   3037.282366    -38.153519
PR08   9373.414898  15646.896972  17888.477453     23.070553
PR09  -8027.770337   8210.989674  22781.293000     27.019750
PR10   9487.873196  14643.863781  18617.407228     24.815758
PR11  21763.009199  12988.850606   3108.301985    -29.378268
PR13   7691.381067  -8161.740675 -22933.554654    -10.643727
PR14  -9175.590209 -14721.707306 -18688.454216     27.461754
PR15 -20090.847930 -14145.697731  -7029.348704    -10.531503
PR16 -21590.718001  -3725.053661  13128.840747     93.085551
PR17   4389.266170 -14185.584698  20739.461044    134.232736
PR18 -11575.457559  -4636.572757  22252.375246    196.435352
PR19 -21658.897501   7321.114799  11303.842184    -52.980166
PR20 -18776.368704  15491.312152  -7524.078657   -338.811505
PR21  -4139.603738  14025.944773 -20904.924737     15.436425
PR22  13341.529212   3087.529371 -21549.856226    -44.831654
PR23  22163.353275  -9972.430190  -7771.214230    155.044708
PR24  18033.241812 -15998.324480   8346.060614   -166.589195
PR26 -18880.641321  15754.503530  -6803.628372     21.068970
EOF
